NORAD_CAT_ID,OBJECT_NAME,OBJECT_TYPE,EPOCH,MEAN_MOTION,ECCENTRICITY,INCLINATION,RA_OF_ASC_NODE,ARG_OF_PERICENTER,MEAN_ANOMALY,BSTAR,MEAN_MOTION_DOT,MEAN_MOTION_DDOT,TLE_LINE0,TLE_LINE1,TLE_LINE2,SEMIMAJOR_AXIS,PERIOD,APOGEE,PERIGEE,DECAYED
52599.0,STARLINK-4024,PAYLOAD,2023-04-22 20:31:53,15.08839201,0.0001267,53.2167,321.0927,71.4043,288.7087,0.00012998,1.781e-05,0.0,0 STARLINK-4024,1 52599U 22052B   23112.85548227  .00001781  00000-0  12998-3 0  9990,2 52599  53.2167 321.0927 0001267  71.4043 288.7087 15.08839201 52863,6917.883,95.438,540.624,538.871,0.0
52599.0,STARLINK-4024,PAYLOAD,2023-04-23 14:01:08,15.08845338,0.0001139,53.2168,317.8199,70.9825,289.129,0.00029749,4.451e-05,0.0,0 STARLINK-4024,1 52599U 22052B   23113.58412233  .00004451  00000-0  29749-3 0  9997,2 52599  53.2168 317.8199 0001139  70.9825 289.1290 15.08845338 52542,6917.864,95.437,540.517,538.941,0.0
52599.0,STARLINK-4024,PAYLOAD,2023-04-24 12:16:31,15.08869306,0.0001187,53.2163,313.6553,70.4126,289.6994,0.0008754,0.00013683,0.0,0 STARLINK-4024,1 52599U 22052B   23114.51147357  .00013683  00000-0  87540-3 0  9993,2 52599  53.2163 313.6553 0001187  70.4126 289.6994 15.08869306 53118,6917.791,95.436,540.477,538.835,0.0
52599.0,STARLINK-4024,PAYLOAD,2023-04-25 12:07:19,15.08811634,0.0002763,53.2165,309.1958,88.6843,271.4466,-0.00085138,-0.00013803,0.0,0 STARLINK-4024,1 52599U 22052B   23115.50508333 -.00013803  00000-0 -85138-3 0  9995,2 52599  53.2165 309.1958 0002763  88.6843 271.4466 15.08811634 53267,6917.967,95.439,541.744,537.921,0.0
52599.0,STARLINK-4024,PAYLOAD,2023-04-26 11:58:08,15.08808314,8.08e-05,53.2176,304.7349,185.8725,174.2257,0.00040623,6.178e-05,0.0,0 STARLINK-4024,1 52599U 22052B   23116.49870896  .00006178  00000-0  40623-3 0  9995,2 52599  53.2176 304.7349 0000808 185.8725 174.2257 15.08808314 53417,6917.977,95.44,540.401,539.283,0.0
52599.0,STARLINK-4024,PAYLOAD,2023-04-26 15:08:54,15.08826855,8.12e-05,53.2163,304.1417,131.8339,228.2723,0.00048042,7.364e-05,0.0,0 STARLINK-4024,1 52599U 22052B   23116.63118572  .00007364  00000-0  48042-3 0  9998,2 52599  53.2163 304.1417 0000812 131.8339 228.2723 15.08826855 53430,6917.921,95.438,540.347,539.224,0.0
52599.0,STARLINK-4024,PAYLOAD,2023-04-27 11:48:54,15.08857768,8.75e-05,53.2155,300.2757,139.2848,220.821,0.0010534,0.00016525,0.0,0 STARLINK-4024,1 52599U 22052B   23117.49230270  .00016525  00000-0  10534-2 0  9996,2 52599  53.2155 300.2757 0000875 139.2848 220.8210 15.08857768 53561,6917.826,95.436,540.296,539.086,0.0
52599.0,STARLINK-4024,PAYLOAD,2023-04-27 14:59:40,15.08872991,8.84e-05,53.2151,299.6808,141.7797,218.3258,0.0010213,0.00016018,0.0,0 STARLINK-4024,1 52599U 22052B   23117.62477667  .00016018  00000-0  10213-2 0  9995,2 52599  53.2151 299.6808 0000884 141.7797 218.3258 15.08872991 53150,6917.78,95.435,540.256,539.033,0.0
52599.0,STARLINK-4024,PAYLOAD,2023-04-28 05:18:08,15.08866595,6.95e-05,53.2155,297.0041,109.0622,251.0446,0.00037569,5.701e-05,0.0,0 STARLINK-4024,1 52599U 22052B   23118.22092787  .00005701  00000-0  37569-3 0  9999,2 52599  53.2155 297.0041 0000695 109.0622 251.0446 15.08866595 53245,6917.799,95.436,540.145,539.183,0.0
52599.0,STARLINK-4024,PAYLOAD,2023-04-28 11:39:40,15.08845978,5.81e-05,53.2148,295.8153,112.5903,247.5151,0.00033199,5.001e-05,0.0,0 STARLINK-4024,1 52599U 22052B   23118.48588904  .00005001  00000-0  33199-3 0  9996,2 52599  53.2148 295.8153 0000581 112.5903 247.5151 15.08845978 53281,6917.862,95.437,540.129,539.325,0.0
52599.0,STARLINK-4024,PAYLOAD,2023-04-29 05:08:55,15.088418,3.12e-05,53.2152,292.5442,92.5191,267.5837,0.00047472,7.276e-05,0.0,0 STARLINK-4024,1 52599U 22052B   23119.21452987  .00007276  00000-0  47472-3 0  9994,2 52599  53.2152 292.5442 0000312  92.5191 267.5837 15.08841800 53394,6917.875,95.437,539.956,539.524,0.0
52599.0,STARLINK-4024,PAYLOAD,2023-04-29 13:05:51,15.08843918,5.07e-05,53.2151,291.0569,104.777,255.3279,0.00027367,4.071e-05,0.0,0 STARLINK-4024,1 52599U 22052B   23119.54573022  .00004071  00000-0  27367-3 0  9995,2 52599  53.2151 291.0569 0000507 104.7770 255.3279 15.08843918 53872,6917.868,95.437,540.084,539.383,0.0
52599.0,STARLINK-4024,PAYLOAD,2023-04-30 14:32:01,15.08840182,6.06e-05,53.2154,286.3018,56.6282,303.4768,0.00013074,1.794e-05,0.0,0 STARLINK-4024,1 52599U 22052B   23120.60557211  .00001794  00000-0  13074-3 0  9995,2 52599  53.2154 286.3018 0000606  56.6282 303.4768 15.08840182 53603,6917.88,95.438,540.164,539.326,0.0
52599.0,STARLINK-4024,PAYLOAD,2023-05-01 11:12:02,15.08839127,4.44e-05,53.2156,282.433,90.5732,269.5311,7.7047e-05,9.39e-06,0.0,0 STARLINK-4024,1 52599U 22052B   23121.46669301  .00000939  00000-0  77047-4 0  9995,2 52599  53.2156 282.4330 0000444  90.5732 269.5311 15.08839127 54161,6917.883,95.438,540.055,539.441,0.0
52599.0,STARLINK-4024,PAYLOAD,2023-05-01 15:58:11,15.08839342,4.24e-05,53.2159,281.5411,89.5708,270.5333,6.6384e-05,7.69e-06,0.0,0 STARLINK-4024,1 52599U 22052B   23121.66541289  .00000769  00000-0  66384-4 0  9994,2 52599  53.2159 281.5411 0000424  89.5708 270.5333 15.08839342 53763,6917.882,95.438,540.041,539.454,0.0
52599.0,STARLINK-4024,PAYLOAD,2023-05-01 19:08:57,15.08842848,4.37e-05,53.2169,280.9454,96.5735,263.5307,5.3296e-05,5.61e-06,0.0,0 STARLINK-4024,1 52599U 22052B   23121.79789117  .00000561  00000-0  53296-4 0  9990,2 52599  53.2169 280.9454 0000437  96.5735 263.5307 15.08842848 54215,6917.872,95.437,540.039,539.434,0.0
52599.0,STARLINK-4024,PAYLOAD,2023-05-02 12:38:12,15.0883956,4.83e-05,53.2174,277.6741,78.5165,281.5882,0.00013718,1.896e-05,0.0,0 STARLINK-4024,1 52599U 22052B   23122.52653224  .00001896  00000-0  13718-3 0  9997,2 52599  53.2174 277.6741 0000483  78.5165 281.5882 15.08839560 54328,6917.882,95.438,540.081,539.413,0.0
52599.0,STARLINK-4024,PAYLOAD,2023-05-02 15:48:58,15.08842956,4.7e-05,53.217,277.0798,80.5973,279.5072,0.00016591,2.354e-05,0.0,0 STARLINK-4024,1 52599U 22052B   23122.65900986  .00002354  00000-0  16591-3 0  9993,2 52599  53.2170 277.0798 0000470  80.5973 279.5072 15.08842956 54349,6917.871,95.437,540.061,539.411,0.0
52599.0,STARLINK-4024,PAYLOAD,2023-05-03 02:56:40,15.08841144,5.13e-05,53.2171,274.9982,69.3837,290.721,0.00013787,1.907e-05,0.0,0 STARLINK-4024,1 52599U 22052B   23123.12269249  .00001907  00000-0  13787-3 0  9993,2 52599  53.2171 274.9982 0000513  69.3837 290.7210 15.08841144 53989,6917.877,95.437,540.097,539.387,0.0
52599.0,STARLINK-4024,PAYLOAD,2023-05-03 14:04:23,15.08834642,5.09e-05,53.2163,272.919,84.7471,275.3579,5.2076e-05,5.41e-06,0.0,0 STARLINK-4024,1 52599U 22052B   23123.58637900  .00000541  00000-0  52076-4 0  9994,2 52599  53.2163 272.9190 0000509  84.7471 275.3579 15.08834642 54050,6917.897,95.438,540.114,539.41,0.0
52599.0,STARLINK-4024,PAYLOAD,2023-05-03 17:15:09,15.08836612,5.15e-05,53.2165,272.3244,78.0194,282.0856,5.8771e-05,6.48e-06,0.0,0 STARLINK-4024,1 52599U 22052B   23123.71885753  .00000648  00000-0  58771-4 0  9996,2 52599  53.2165 272.3244 0000515  78.0194 282.0856 15.08836612 54503,6917.891,95.438,540.112,539.399,0.0
52599.0,STARLINK-4024,PAYLOAD,2023-05-04 04:22:52,15.08808874,6.32e-05,53.2164,270.2432,79.3178,280.7885,0.00055872,8.608e-05,0.0,0 STARLINK-4024,1 52599U 22052B   23124.18254877  .00008608  00000-0  55872-3 0  9997,2 52599  53.2164 270.2432 0000632  79.3178 280.7885 15.08808874 54140,6917.976,95.44,540.278,539.403,0.0
52599.0,STARLINK-4024,PAYLOAD,2023-05-04 13:55:10,15.08835784,5.21e-05,53.2162,268.4582,57.1071,302.9971,-2.8551e-05,-7.42e-06,0.0,0 STARLINK-4024,1 52599U 22052B   23124.57998179 -.00000742  00000-0 -28551-4 0  9998,2 52599  53.2162 268.4582 0000521  57.1071 302.9971 15.08835784 54206,6917.893,95.438,540.119,539.398,0.0
52599.0,STARLINK-4024,PAYLOAD,2023-05-04 17:05:56,15.08838463,5.28e-05,53.2161,267.8624,60.6739,299.4306,-1.1955e-05,-4.78e-06,0.0,0 STARLINK-4024,1 52599U 22052B   23124.71245958 -.00000478  00000-0 -11955-4 0  9990,2 52599  53.2161 267.8624 0000528  60.6739 299.4306 15.08838463 54650,6917.885,95.438,540.115,539.385,0.0
52599.0,STARLINK-4024,PAYLOAD,2023-05-05 08:59:47,15.08839907,7.22e-05,53.216,264.889,60.6716,299.4348,0.0001126,1.505e-05,0.0,0 STARLINK-4024,1 52599U 22052B   23125.37485671  .00001505  00000-0  11260-3 0  9999,2 52599  53.2160 264.8890 0000722  60.6716 299.4348 15.08839907 54326,6917.881,95.438,540.245,539.246,0.0
52599.0,STARLINK-4024,PAYLOAD,2023-05-05 16:56:42,15.0884866,6.57e-05,53.2163,263.4024,38.8317,321.2722,0.00016352,2.316e-05,0.0,0 STARLINK-4024,1 52599U 22052B   23125.70605022  .00002316  00000-0  16352-3 0  9998,2 52599  53.2163 263.4024 0000657  38.8317 321.2722 15.08848660 54375,6917.854,95.437,540.173,539.264,0.0
52599.0,STARLINK-4024,PAYLOAD,2023-05-06 15:12:07,15.08843043,5.61e-05,53.2161,259.2397,41.2498,318.8536,0.00018463,2.652e-05,0.0,0 STARLINK-4024,1 52599U 22052B   23126.63341716  .00002652  00000-0  18463-3 0  9996,2 52599  53.2161 259.2397 0000561  41.2498 318.8536 15.08843043 54949,6917.871,95.437,540.124,539.348,0.0
52599.0,STARLINK-4024,PAYLOAD,2023-05-07 02:19:49,15.08839276,4.5e-05,53.2171,257.1524,124.6662,235.4372,6.473e-05,7.43e-06,0.0,0 STARLINK-4024,1 52599U 22052B   23127.09709780  .00000743  00000-0  64730-4 0  9994,2 52599  53.2171 257.1524 0000450 124.6662 235.4372 15.08839276 54580,6917.883,95.438,540.059,539.436,0.0
52599.0,STARLINK-4024,PAYLOAD,2023-05-07 13:27:31,15.08835822,4.46e-05,53.2158,255.0723,129.8327,230.2705,9.0666e-05,1.156e-05,0.0,0 STARLINK-4024,1 52599U 22052B   23127.56078164  .00001156  00000-0  90666-4 0  9997,2 52599  53.2158 255.0723 0000446 129.8327 230.2705 15.08835822 55085,6917.893,95.438,540.067,539.45,0.0
52599.0,STARLINK-4024,PAYLOAD,2023-05-07 15:02:54,15.0884057,5.01e-05,53.2159,254.7765,110.5487,249.5559,3.059e-06,-2.39e-06,0.0,0 STARLINK-4024,1 52599U 22052B   23127.62701863 -.00000239  00000-0  30590-5 0  9996,2 52599  53.2159 254.7765 0000501 110.5487 249.5559 15.08840570 55091,6917.879,95.438,540.09,539.397,0.0
